NORAD_CAT_ID,OBJECT_NAME,OBJECT_TYPE,EPOCH,MEAN_MOTION,ECCENTRICITY,INCLINATION,RA_OF_ASC_NODE,ARG_OF_PERICENTER,MEAN_ANOMALY,BSTAR,MEAN_MOTION_DOT,MEAN_MOTION_DDOT,TLE_LINE0,TLE_LINE1,TLE_LINE2,SEMIMAJOR_AXIS,PERIOD,APOGEE,PERIGEE,DECAYED
53800.0,STARLINK-4720,PAYLOAD,2024-05-19 20:13:23,15.0881191,0.0001493,53.2177,341.7473,69.6216,290.4936,-0.00027353,-4.635e-05,0.0,0 STARLINK-4720,1 53800U 22111AD  24140.84263161 -.00004635  00000-0 -27353-3 0  9998,2 53800  53.2177 341.7473 0001493  69.6216 290.4936 15.08811910 93547,6917.966,95.439,540.864,538.798,0.0
53800.0,STARLINK-4720,PAYLOAD,2024-05-20 20:04:11,15.08851475,0.0001508,53.2175,337.2875,64.5344,295.5804,0.0015024,0.00023711,0.0,0 STARLINK-4720,1 53800U 22111AD  24141.83624128  .00023711  00000-0  15024-2 0  9997,2 53800  53.2175 337.2875 0001508  64.5344 295.5804 15.08851475 93690,6917.845,95.437,540.754,538.667,0.0
53800.0,STARLINK-4720,PAYLOAD,2024-05-20 23:14:57,15.08859996,0.0001474,53.2172,336.6924,62.4184,297.6957,0.0016279,0.00025729,0.0,0 STARLINK-4720,1 53800U 22111AD  24141.96871955  .00025729  00000-0  16279-2 0  9997,2 53800  53.2172 336.6924 0001474  62.4184 297.6957 15.08859996 94527,6917.819,95.436,540.704,538.665,0.0
53800.0,STARLINK-4720,PAYLOAD,2024-05-21 19:54:57,15.08847269,0.00013,53.2174,332.8225,88.5214,271.5927,0.00014934,2.09e-05,0.0,0 STARLINK-4720,1 53800U 22111AD  24142.82983550  .00002090  00000-0  14934-3 0  9991,2 53800  53.2174 332.8225 0001300  88.5214 271.5927 15.08847269 93844,6917.858,95.437,540.622,538.824,0.0
53800.0,STARLINK-4720,PAYLOAD,2024-05-21 23:05:44,15.08845878,0.000132,53.2174,332.2281,87.3024,272.8119,0.00022447,3.287e-05,0.0,0 STARLINK-4720,1 53800U 22111AD  24142.96231621  .00003287  00000-0  22447-3 0  9998,2 53800  53.2174 332.2281 0001320  87.3024 272.8119 15.08845878 94671,6917.862,95.437,540.641,538.814,0.0
53800.0,STARLINK-4720,PAYLOAD,2024-05-22 19:45:45,15.08836487,0.0001327,53.2175,328.3614,86.4297,273.6847,-6.5199e-05,-1.325e-05,0.0,0 STARLINK-4720,1 53800U 22111AD  24143.82343861 -.00001325  00000-0 -65199-4 0  9999,2 53800  53.2175 328.3614 0001327  86.4297 273.6847 15.08836487 93994,6917.891,95.438,540.674,538.838,0.0
53800.0,STARLINK-4720,PAYLOAD,2024-05-22 21:21:08,15.08839289,0.0001356,53.2179,328.064,94.4355,265.6792,-1.5462e-05,-5.34e-06,0.0,0 STARLINK-4720,1 53800U 22111AD  24143.88967888 -.00000534  00000-0 -15462-4 0  9995,2 53800  53.2179 328.0640 0001356  94.4355 265.6792 15.08839289 94815,6917.883,95.438,540.686,538.809,0.0
53800.0,STARLINK-4720,PAYLOAD,2024-05-23 11:39:36,15.08838464,0.0001268,53.2172,325.387,126.3345,233.7765,3.8858e-05,3.31e-06,0.0,0 STARLINK-4720,1 53800U 22111AD  24144.48583829  .00000331  00000-0  38858-4 0  9998,2 53800  53.2172 325.3870 0001268 126.3345 233.7765 15.08838464 94909,6917.885,95.438,540.627,538.873,0.0
53800.0,STARLINK-4720,PAYLOAD,2024-05-23 19:36:31,15.08847296,0.0001244,53.2172,323.901,110.2727,249.8399,6.3684e-06,-1.87e-06,0.0,0 STARLINK-4720,1 53800U 22111AD  24144.81703459 -.00000187  00000-0  63684-5 0  9994,2 53800  53.2172 323.9010 0001244 110.2727 249.8399 15.08847296 94149,6917.858,95.437,540.584,538.863,0.0
53800.0,STARLINK-4720,PAYLOAD,2024-05-24 21:02:42,15.08843095,0.0001265,53.217,319.1446,98.3362,261.7773,0.00013245,1.821e-05,0.0,0 STARLINK-4720,1 53800U 22111AD  24145.87687931  .00001821  00000-0  13245-3 0  9998,2 53800  53.2170 319.1446 0001265  98.3362 261.7773 15.08843095 94301,6917.871,95.437,540.611,538.861,0.0
53800.0,STARLINK-4720,PAYLOAD,2024-05-25 11:21:10,15.08837718,0.0001318,53.2174,316.4664,109.8456,250.2678,0.00015316,2.15e-05,0.0,0 STARLINK-4720,1 53800U 22111AD  24146.47304174  .00002150  00000-0  15316-3 0  9997,2 53800  53.2174 316.4664 0001318 109.8456 250.2678 15.08837718 95200,6917.887,95.438,540.664,538.841,0.0
53800.0,STARLINK-4720,PAYLOAD,2024-05-25 17:42:43,15.08837769,0.0001418,53.219,315.2769,114.9899,245.124,2.0016e-05,3.1e-07,0.0,0 STARLINK-4720,1 53800U 22111AD  24146.73800398  .00000031  00000-0  20016-4 0  9995,2 53800  53.2190 315.2769 0001418 114.9899 245.1240 15.08837769 94438,6917.887,95.438,540.733,538.771,0.0
53800.0,STARLINK-4720,PAYLOAD,2024-05-26 14:22:44,15.08842429,0.0001168,53.2192,311.4179,89.5567,270.5559,1.4508e-05,-5.7e-07,0.0,0 STARLINK-4720,1 53800U 22111AD  24147.59912309 -.00000057  00000-0  14508-4 0  9994,2 53800  53.2192 311.4179 0001168  89.5567 270.5559 15.08842429 95372,6917.873,95.437,540.546,538.93,0.0
53800.0,STARLINK-4720,PAYLOAD,2024-05-26 20:44:16,15.08846106,0.0001307,53.2193,310.2265,96.3628,263.7513,6.5882e-05,7.61e-06,0.0,0 STARLINK-4720,1 53800U 22111AD  24147.86407874  .00000761  00000-0  65882-4 0  9992,2 53800  53.2193 310.2265 0001307  96.3628 263.7513 15.08846106 94600,6917.862,95.437,540.631,538.823,0.0
53800.0,STARLINK-4720,PAYLOAD,2024-05-27 14:13:31,15.08836216,0.0001103,53.2185,306.9531,79.7517,280.3599,0.0001047,1.379e-05,0.0,0 STARLINK-4720,1 53800U 22111AD  24148.59272344  .00001379  00000-0  10470-3 0  9993,2 53800  53.2185 306.9531 0001103  79.7517 280.3599 15.08836216 95527,6917.892,95.438,540.52,538.994,0.0
53800.0,STARLINK-4720,PAYLOAD,2024-05-27 17:24:17,15.08836342,0.0001173,53.2187,306.3586,88.5234,271.5892,9.9291e-05,1.293e-05,0.0,0 STARLINK-4720,1 53800U 22111AD  24148.72520375  .00001293  00000-0  99291-4 0  9992,2 53800  53.2187 306.3586 0001173  88.5234 271.5892 15.08836342 94734,6917.892,95.438,540.568,538.945,0.0
53800.0,STARLINK-4720,PAYLOAD,2024-05-28 14:04:18,15.08839833,0.0001113,53.2185,302.493,90.252,269.86,1.1346e-05,-1.07e-06,0.0,0 STARLINK-4720,1 53800U 22111AD  24149.58632466 -.00000107  00000-0  11346-4 0  9991,2 53800  53.2185 302.4930 0001113  90.2520 269.8600 15.08839833 95673,6917.881,95.438,540.516,538.976,0.0
53800.0,STARLINK-4720,PAYLOAD,2024-05-28 17:15:04,15.0884002,0.0001107,53.2184,301.8983,87.9725,272.1394,8.3355e-06,-1.55e-06,0.0,0 STARLINK-4720,1 53800U 22111AD  24149.71880439 -.00000155  00000-0  83355-5 0  9994,2 53800  53.2184 301.8983 0001107  87.9725 272.1394 15.08840020 95695,6917.88,95.438,540.511,538.98,0.0
53800.0,STARLINK-4720,PAYLOAD,2024-05-29 13:55:05,15.08838857,0.0001067,53.2181,298.0329,82.4233,277.688,6.6861e-05,7.76e-06,0.0,0 STARLINK-4720,1 53800U 22111AD  24150.57992390  .00000776  00000-0  66861-4 0  9990,2 53800  53.2181 298.0329 0001067  82.4233 277.6880 15.08838857 95822,6917.884,95.438,540.487,539.011,0.0
53800.0,STARLINK-4720,PAYLOAD,2024-05-29 15:30:28,15.08839243,0.0001067,53.218,297.7354,83.4296,276.6818,6.9888e-05,8.25e-06,0.0,0 STARLINK-4720,1 53800U 22111AD  24150.64616357  .00000825  00000-0  69888-4 0  9991,2 53800  53.2180 297.7354 0001067  83.4296 276.6818 15.08839243 95027,6917.883,95.438,540.486,539.01,0.0
53800.0,STARLINK-4720,PAYLOAD,2024-05-30 13:45:52,15.08843676,0.0001044,53.2176,293.5718,84.4634,275.6477,9.5025e-05,1.225e-05,0.0,0 STARLINK-4720,1 53800U 22111AD  24151.57352061  .00001225  00000-0  95025-4 0  9990,2 53800  53.2176 293.5718 0001044  84.4634 275.6477 15.08843676 95971,6917.869,95.437,540.456,539.012,0.0
53800.0,STARLINK-4720,PAYLOAD,2024-05-30 16:56:38,15.08845169,0.0001029,53.2173,292.9767,78.9237,281.1871,0.0001008,1.317e-05,0.0,0 STARLINK-4720,1 53800U 22111AD  24151.70599947  .00001317  00000-0  10080-3 0  9990,2 53800  53.2173 292.9767 0001029  78.9237 281.1871 15.08845169 95187,6917.865,95.437,540.441,539.018,0.0
53800.0,STARLINK-4720,PAYLOAD,2024-05-31 13:36:39,15.08840219,0.0001207,53.2175,289.1087,63.7092,296.4024,2.3959e-05,9.3e-07,0.0,0 STARLINK-4720,1 53800U 22111AD  24152.56712517  .00000093  00000-0  23959-4 0  9995,2 53800  53.2175 289.1087 0001207  63.7092 296.4024 15.08840219 95316,6917.88,95.438,540.58,538.91,0.0
53800.0,STARLINK-4720,PAYLOAD,2024-05-31 18:22:48,15.08841624,0.0001042,53.2171,288.2202,87.205,272.9061,1.8117e-05,1e-08,0.0,0 STARLINK-4720,1 53800U 22111AD  24152.76584285  .00000001  00000-0  18117-4 0  9995,2 53800  53.2171 288.2202 0001042  87.2050 272.9061 15.08841624 96157,6917.875,95.437,540.461,539.02,0.0
53800.0,STARLINK-4720,PAYLOAD,2024-06-01 02:19:43,15.08849687,0.0001117,53.218,286.7343,85.4124,274.6995,3.3033e-05,2.38e-06,0.0,0 STARLINK-4720,1 53800U 22111AD  24153.09703613  .00000238  00000-0  33033-4 0  9996,2 53800  53.2180 286.7343 0001117  85.4124 274.6995 15.08849687 95398,6917.851,95.437,540.489,538.943,0.0
53800.0,STARLINK-4720,PAYLOAD,2024-06-01 13:27:26,15.08837432,0.0001572,53.2178,284.6523,87.9636,272.1536,6.699e-05,7.78e-06,0.0,0 STARLINK-4720,1 53800U 22111AD  24153.56072513  .00000778  00000-0  66990-4 0  9993,2 53800  53.2178 284.6523 0001572  87.9636 272.1536 15.08837432 95469,6917.888,95.438,540.841,538.666,0.0
53800.0,STARLINK-4720,PAYLOAD,2024-06-01 15:02:49,15.0883836,0.0001499,53.2178,284.3541,92.3723,267.7441,6.969e-05,8.21e-06,0.0,0 STARLINK-4720,1 53800U 22111AD  24153.62696463  .00000821  00000-0  69690-4 0  9995,2 53800  53.2178 284.3541 0001499  92.3723 267.7441 15.08838360 96288,6917.885,95.438,540.787,538.713,0.0
53800.0,STARLINK-4720,PAYLOAD,2024-06-02 02:10:30,15.08851648,0.000118,53.2184,282.2715,92.7408,267.372,8.0838e-05,9.99e-06,0.0,0 STARLINK-4720,1 53800U 22111AD  24154.09063289  .00000999  00000-0  80838-4 0  9994,2 53800  53.2184 282.2715 0001180  92.7408 267.3720 15.08851648 95544,6917.845,95.437,540.526,538.893,0.0
53800.0,STARLINK-4720,PAYLOAD,2024-06-02 08:32:03,15.08842275,0.0001987,53.2163,281.0844,84.8333,275.2886,0.00018588,2.672e-05,0.0,0 STARLINK-4720,1 53800U 22111AD  24154.35559835  .00002672  00000-0  18588-3 0  9992,2 53800  53.2163 281.0844 0001987  84.8333 275.2886 15.08842275 95586,6917.873,95.437,541.113,538.364,0.0
53800.0,STARLINK-4720,PAYLOAD,2024-06-02 14:53:36,15.08835883,0.0001471,53.2167,279.8945,88.7958,271.3202,0.0001355,1.869e-05,0.0,0 STARLINK-4720,1 53800U 22111AD  24154.62056324  .00001869  00000-0  13550-3 0  9998,2 53800  53.2167 279.8945 0001471  88.7958 271.3202 15.08835883 96432,6917.893,95.438,540.776,538.74,0.0
